{"type": "FeatureCollection", "features": [ {"type": "Feature", "properties": {"norad_id": 41774, "name": "SKYSAT-C3", "group": "resource", "lat": -18.898710821392502, "lon": -160.90471967588437, "alt_km": 438.2918546825267, "timestamp": "2025-12-13T18:50:04.085845+00:00", "meta": {"OBJECT_NAME": "SKYSAT-C3", "OBJECT_ID": "2016-058E", "EPOCH": "2025-12-13T02:25:33.470112", "MEAN_MOTION": 15.44412706, "ECCENTRICITY": 0.00016554, "INCLINATION": 96.9307, "RA_OF_ASC_NODE": 20.83, "ARG_OF_PERICENTER": 107.9662, "MEAN_ANOMALY": 252.1768, "EPHEMERIS_TYPE": 0, "CLASSIFICATION_TYPE": "U", "NORAD_CAT_ID": 41774, "ELEMENT_SET_NO": 999, "REV_AT_EPOCH": 51731, "BSTAR": 0.00054298369, "MEAN_MOTION_DOT": 0.0002506, "MEAN_MOTION_DDOT": 0}, "tle": {"line1": "1 41774U 16058E   25347.10108183  .00025060  00000+0  54298-3 0  9999", "line2": "2 41774  96.9307  20.8300 0001655 107.9662 252.1768 15.44412706517312"}}, "geometry": {"type": "Point", "coordinates": [-160.90471967588437, -18.898710821392502]}}, {"type": "Feature", "properties": {"norad_id": 41785, "name": "ALSAT 1B", "group": "resource", "lat": 33.76321742874422, "lon": -175.22502666322814, "alt_km": 647.079840278534, "timestamp": "2025-12-13T18:50:04.085856+00:00", "meta": {"OBJECT_NAME": "ALSAT 1B", "OBJECT_ID": "2016-059C", "EPOCH": "2025-12-13T06:45:21.498912", "MEAN_MOTION": 14.72077378, "ECCENTRICITY": 0.00107307, "INCLINATION": 97.7818, "RA_OF_ASC_NODE": 359.0481, "ARG_OF_PERICENTER": 101.4511, "MEAN_ANOMALY": 258.7903, "EPHEMERIS_TYPE": 0, "CLASSIFICATION_TYPE": "U", "NORAD_CAT_ID": 41785, "ELEMENT_SET_NO": 999, "REV_AT_EPOCH": 49322, "BSTAR": 0.00017202831, "MEAN_MOTION_DOT": 1.035e-05, "MEAN_MOTION_DDOT": 0}, "tle": {"line1": "1 41785U 16059C   25347.28149883  .00001035  00000+0  17203-3 0  9994", "line2": "2 41785  97.7818 359.0481 0010730 101.4511 258.7903 14.72077378493221"}}, "geometry": {"type": "Point", "coordinates": [-175.22502666322814, 33.76321742874422]}}, {"type": "Feature", "properties": {"norad_id": 41787, "name": "PATHFINDER 1", "group": "resource", "lat": -26.54056790895758, "lon": 166.5770758768528, "alt_km": 688.5500600490022, "timestamp": "2025-12-13T18:50:04.085867+00:00", "meta": {"OBJECT_NAME": "PATHFINDER 1", "OBJECT_ID": "2016-059E", "EPOCH": "2025-12-13T06:26:30.367392", "MEAN_MOTION": 14.67322965, "ECCENTRICITY": 0.00300233, "INCLINATION": 97.8139, "RA_OF_ASC_NODE": 350.0175, "ARG_OF_PERICENTER": 79.6211, "MEAN_ANOMALY": 280.8376, "EPHEMERIS_TYPE": 0, "CLASSIFICATION_TYPE": "U", "NORAD_CAT_ID": 41787, "ELEMENT_SET_NO": 999, "REV_AT_EPOCH": 49244, "BSTAR": 0.00024196993, "MEAN_MOTION_DOT": 1.328e-05, "MEAN_MOTION_DDOT": 0}, "tle": {"line1": "1 41787U 16059E   25347.26840703  .00001328  00000+0  24197-3 0  9998", "line2": "2 41787  97.8139 350.0175 0030023  79.6211 280.8376 14.67322965492443"}}, "geometry": {"type": "Point", "coordinates": [166.5770758768528, -26.54056790895758]}}, {"type": "Feature", "properties": {"norad_id": 41790, "name": "SCATSAT 1", "group": "resource", "lat": -62.18425587515997, "lon": -151.28607389092156, "alt_km": 658.556532688147, "timestamp": "2025-12-13T18:50:04.085878+00:00", "meta": {"OBJECT_NAME": "SCATSAT 1", "OBJECT_ID": "2016-059H", "EPOCH": "2025-12-13T06:22:35.041440", "MEAN_MOTION": 14.78940977, "ECCENTRICITY": 0.00562999, "INCLINATION": 98.1466, "RA_OF_ASC_NODE": 43.9426, "ARG_OF_PERICENTER": 126.3371, "MEAN_ANOMALY": 234.3055, "EPHEMERIS_TYPE": 0, "CLASSIFICATION_TYPE": "U", "NORAD_CAT_ID": 41790, "ELEMENT_SET_NO": 999, "REV_AT_EPOCH": 7410, "BSTAR": 0.00037811873, "MEAN_MOTION_DOT": 2.808e-05, "MEAN_MOTION_DDOT": 0}, "tle": {"line1": "1 41790U 16059H   25347.26568335  .00002808  00000+0  37812-3 0  9992", "line2": "2 41790  98.1466  43.9426 0056299 126.3371 234.3055 14.78940977 74109"}}, "geometry": {"type": "Point", "coordinates": [-151.28607389092156, -62.18425587515997]}}, {"type": "Feature", "properties": {"norad_id": 41875, "name": "GOKTURK 1A", "group": "resource", "lat": -81.1683828349877, "lon": -7.00522707103282, "alt_km": 692.3993557056801, "timestamp": "2025-12-13T18:50:04.085889+00:00", "meta": {"OBJECT_NAME": "GOKTURK 1A", "OBJECT_ID": "2016-073A", "EPOCH": "2025-12-13T07:46:09.514272", "MEAN_MOTION": 14.62781488, "ECCENTRICITY": 0.00012132, "INCLINATION": 98.1424, "RA_OF_ASC_NODE": 239.6812, "ARG_OF_PERICENTER": 79.8763, "MEAN_ANOMALY": 280.2576, "EPHEMERIS_TYPE": 0, "CLASSIFICATION_TYPE": "U", "NORAD_CAT_ID": 41875, "ELEMENT_SET_NO": 999, "REV_AT_EPOCH": 48165, "BSTAR": 0.00020134578, "MEAN_MOTION_DOT": 9.8e-06, "MEAN_MOTION_DDOT": 0}, "tle": {"line1": "1 41875U 16073A   25347.32372123  .00000980  00000+0  20135-3 0  9996", "line2": "2 41875  98.1424 239.6812 0001213  79.8763 280.2576 14.62781488481656"}}, "geometry": {"type": "Point", "coordinates": [-7.00522707103282, -81.1683828349877]}}, {"type": "Feature", "properties": {"norad_id": 41877, "name": "RESOURCESAT-2A", "group": "resource", "lat": 18.871268971429977, "lon": -119.3395370056318, "alt_km": 820.113171221632, "timestamp": "2025-12-13T18:50:04.085899+00:00", "meta": {"OBJECT_NAME": "RESOURCESAT-2A", "OBJECT_ID": "2016-074A", "EPOCH": "2025-12-13T07:56:43.120032", "MEAN_MOTION": 14.2160036, "ECCENTRICITY": 0.00011627, "INCLINATION": 98.7751, "RA_OF_ASC_NODE": 57.183, "ARG_OF_PERICENTER": 251.6687, "MEAN_ANOMALY": 108.4364, "EPHEMERIS_TYPE": 0, "CLASSIFICATION_TYPE": "U", "NORAD_CAT_ID": 41877, "ELEMENT_SET_NO": 999, "REV_AT_EPOCH": 46789, "BSTAR": 0.00021865094, "MEAN_MOTION_DOT": 4.35e-06, "MEAN_MOTION_DDOT": 0}, "tle": {"line1": "1 41877U 16074A   25347.33105463  .00000435  00000+0  21865-3 0  9997", "line2": "2 41877  98.7751  57.1830 0001162 251.6687 108.4364 14.21600360467898"}}, "geometry": {"type": "Point", "coordinates": [-119.3395370056318, 18.871268971429977]}}, {"type": "Feature", "properties": {"norad_id": 41948, "name": "CARTOSAT-2D", "group": "resource", "lat": 5.873508103665479, "lon": -133.96404707529877, "alt_km": 507.1778561639003, "timestamp": "2025-12-13T18:50:04.085910+00:00", "meta": {"OBJECT_NAME": "CARTOSAT-2D", "OBJECT_ID": "2017-008A", "EPOCH": "2025-12-13T07:00:22.898880", "MEAN_MOTION": 15.19269558, "ECCENTRICITY": 0.00047132, "INCLINATION": 97.4391, "RA_OF_ASC_NODE": 44.7804, "ARG_OF_PERICENTER": 160.6281, "MEAN_ANOMALY": 199.5133, "EPHEMERIS_TYPE": 0, "CLASSIFICATION_TYPE": "U", "NORAD_CAT_ID": 41948, "ELEMENT_SET_NO": 999, "REV_AT_EPOCH": 48935, "BSTAR": 0.00036163647, "MEAN_MOTION_DOT": 7.563e-05, "MEAN_MOTION_DDOT": 0}, "tle": {"line1": "1 41948U 17008A   25347.29193170  .00007563  00000+0  36164-3 0  9998", "line2": "2 41948  97.4391  44.7804 0004713 160.6281 199.5133 15.19269558489358"}}, "geometry": {"type": "Point", "coordinates": [-133.96404707529877, 5.873508103665479]}}, {"type": "Feature", "properties": {"norad_id": 42063, "name": "SENTINEL-2B", "group": "resource", "lat": 15.707963808069655, "lon": -117.35356306490293, "alt_km": 789.4285139928143, "timestamp": "2025-12-13T18:50:04.085921+00:00", "meta": {"OBJECT_NAME": "SENTINEL-2B", "OBJECT_ID": "2017-013A", "EPOCH": "2025-12-13T06:19:20.338176", "MEAN_MOTION": 14.30816684, "ECCENTRICITY": 0.00011552, "INCLINATION": 98.571, "RA_OF_ASC_NODE": 59.7016, "ARG_OF_PERICENTER": 93.5343, "MEAN_ANOMALY": 266.5972, "EPHEMERIS_TYPE": 0, "CLASSIFICATION_TYPE": "U", "NORAD_CAT_ID": 42063, "ELEMENT_SET_NO": 999, "REV_AT_EPOCH": 45805, "BSTAR": 0.00013992122, "MEAN_MOTION_DOT": 3.23e-06, "MEAN_MOTION_DDOT": 0}, "tle": {"line1": "1 42063U 17013A   25347.26342984  .00000323  00000+0  13992-3 0  9990", "line2": "2 42063  98.5710  59.7016 0001155  93.5343 266.5972 14.30816684458054"}}, "geometry": {"type": "Point", "coordinates": [-117.35356306490293, 15.707963808069655]}}, {"type": "Feature", "properties": {"norad_id": 42767, "name": "CARTOSAT-2E", "group": "resource", "lat": 80.75384393536321, "lon": -8.19715969677103, "alt_km": 502.0261149069747, "timestamp": "2025-12-13T18:50:04.085931+00:00", "meta": {"OBJECT_NAME": "CARTOSAT-2E", "OBJECT_ID": "2017-036C", "EPOCH": "2025-12-13T07:23:53.829888", "MEAN_MOTION": 15.19210885, "ECCENTRICITY": 0.00021017, "INCLINATION": 97.4555, "RA_OF_ASC_NODE": 44.8874, "ARG_OF_PERICENTER": 234.8313, "MEAN_ANOMALY": 125.2725, "EPHEMERIS_TYPE": 0, "CLASSIFICATION_TYPE": "U", "NORAD_CAT_ID": 42767, "ELEMENT_SET_NO": 999, "REV_AT_EPOCH": 46992, "BSTAR": 0.00046833274, "MEAN_MOTION_DOT": 9.798e-05, "MEAN_MOTION_DDOT": 0}, "tle": {"line1": "1 42767U 17036C   25347.30826192  .00009798  00000+0  46833-3 0  9994", "line2": "2 42767  97.4555  44.8874 0002101 234.8313 125.2725 15.19210885469920"}}, "geometry": {"type": "Point", "coordinates": [-8.19715969677103, 80.75384393536321]}}, {"type": "Feature", "properties": {"norad_id": 42920, "name": "FORMOSAT-5", "group": "resource", "lat": -60.7821678513491, "lon": -132.94347771221382, "alt_km": 725.0252601259872, "timestamp": "2025-12-13T18:50:04.085943+00:00", "meta": {"OBJECT_NAME": "FORMOSAT-5", "OBJECT_ID": "2017-049A", "EPOCH": "2025-12-13T06:08:15.027936", "MEAN_MOTION": 14.51006185, "ECCENTRICITY": 0.000987, "INCLINATION": 98.2453, "RA_OF_ASC_NODE": 61.5645, "ARG_OF_PERICENTER": 293.7257, "MEAN_ANOMALY": 66.2902, "EPHEMERIS_TYPE": 0, "CLASSIFICATION_TYPE": "U", "NORAD_CAT_ID": 42920, "ELEMENT_SET_NO": 999, "REV_AT_EPOCH": 43971, "BSTAR": 0.00011654669, "MEAN_MOTION_DOT": 4.17e-06, "MEAN_MOTION_DDOT": 0}, "tle": {"line1": "1 42920U 17049A   25347.25572949  .00000417  00000+0  11655-3 0  9994", "line2": "2 42920  98.2453  61.5645 0009870 293.7257  66.2902 14.51006185439716"}}, "geometry": {"type": "Point", "coordinates": [-132.94347771221382, -60.7821678513491]}}]}